H1 CPF 01  gfz 2021 01 02 13  5022 terrasarx 
H2 0702601  6201 31698    2021 01 02 12 59 42 2021 01 07 00 00 42   120 1 1  0 0 0
H9
10 0 59220  15822.000000  0    5326625.020   2886725.868   3270609.157
10 0 59220  15942.000000  0    5746544.720   2897767.344   2449881.491
10 0 59220  16062.000000  0    6065686.727   2851676.767   1586015.593
10 0 59220  16182.000000  0    6277502.120   2751084.607    694224.821
10 0 59220  16302.000000  0    6377395.055   2599680.599   -209786.195
10 0 59220  16422.000000  0    6362821.183   2402112.265  -1110107.678
10 0 59220  16542.000000  0    6233343.805   2163863.835  -1990912.110
10 0 59220  16662.000000  0    5990650.973   1891121.029  -2836739.194
10 0 59220  16782.000000  0    5638528.440   1590621.491  -3632773.620
10 0 59220  16902.000000  0    5182791.157   1269496.165  -4365107.049
10 0 59220  17022.000000  0    4631174.444    935105.902  -5020979.553
10 0 59220  17142.000000  0    3993190.751    594878.747  -5588995.312
10 0 59220  17262.000000  0    3279956.134    256150.415  -6059311.842
10 0 59220  17382.000000  0    2503988.864    -73988.342  -6423800.383
10 0 59220  17502.000000  0    1678985.554   -388835.068  -6676174.451
10 0 59220  17622.000000  0     819580.310   -682206.961  -6812088.214
10 0 59220  17742.000000  0     -58912.730   -948558.304  -6829204.012
10 0 59220  17862.000000  0    -940766.812  -1183081.571  -6727226.632
10 0 59220  17982.000000  0   -1810116.956  -1381791.848  -6507908.495
10 0 59220  18102.000000  0   -2651239.463  -1541593.350  -6175022.680
10 0 59220  18222.000000  0   -3448829.719  -1660326.737  -5734304.034
10 0 59220  18342.000000  0   -4188277.403  -1736797.715  -5193362.101
10 0 59220  18462.000000  0   -4855936.296  -1770785.652  -4561561.316
10 0 59220  18582.000000  0   -5439380.581  -1763031.544  -3849869.790
10 0 59220  18702.000000  0   -5927644.499  -1715205.853  -3070678.858
10 0 59220  18822.000000  0   -6311439.348  -1629856.228  -2237593.559
10 0 59220  18942.000000  0   -6583341.764  -1510335.572  -1365197.956
10 0 59220  19062.000000  0   -6737948.741  -1360712.380   -468798.927
10 0 59220  19182.000000  0   -6771994.716  -1185664.684    435847.145
10 0 59220  19302.000000  0   -6684426.494   -990359.947   1332818.732
10 0 59220  19422.000000  0   -6476433.469   -780324.976   2206318.322
10 0 59220  19542.000000  0   -6151432.572   -561308.597   3040959.656
10 0 59220  19662.000000  0   -5715008.341   -339140.353   3822046.998
10 0 59220  19782.000000  0   -5174808.620   -119589.185   4535840.014
10 0 59220  19902.000000  0   -4540399.948     91773.538   5169797.272
10 0 59220  20022.000000  0   -3823088.596    289704.702   5712795.038
10 0 59220  20142.000000  0   -3035710.033    469410.151   6155319.765
10 0 59220  20262.000000  0   -2192390.797    626652.296   6489629.521
10 0 59220  20382.000000  0   -1308289.363    757843.101   6709883.921
10 0 59220  20502.000000  0    -399319.741    860121.374   6812239.701
10 0 59220  20622.000000  0     518135.281    931412.050   6794912.564
10 0 59220  20742.000000  0    1427518.234    970467.114   6658206.079
10 0 59220  20862.000000  0    2312394.575    976887.792   6404506.833
10 0 59220  20982.000000  0    3156748.907    951126.990   6038245.850
10 0 59220  21102.000000  0    3945276.724    894472.200   5565826.317
10 0 59220  21222.000000  0    4663664.690    809009.431   4995516.690
10 0 59220  21342.000000  0    5298855.802    697567.893   4337313.403
10 0 59220  21462.000000  0    5839296.367    563647.358   3602771.098
10 0 59220  21582.000000  0    6275156.506    411329.900   2804801.239
10 0 59220  21702.000000  0    6598517.812    245176.895   1957444.082
10 0 59220  21822.000000  0    6803527.070     70113.190   1075619.570
10 0 59220  21942.000000  0    6886509.320   -108696.849    174857.964
10 0 59220  22062.000000  0    6846037.954   -285979.976   -728981.670
10 0 59220  22182.000000  0    6682958.618   -456487.677  -1620000.181
10 0 59220  22302.000000  0    6400367.343   -615128.887  -2482546.397
10 0 59220  22422.000000  0    6003543.339   -757098.690  -3301498.269
10 0 59220  22542.000000  0    5499839.575   -877999.770  -4062531.386
10 0 59220  22662.000000  0    4898533.811   -973953.091  -4752369.350
10 0 59220  22782.000000  0    4210645.560  -1041695.249  -5359010.873
10 0 59220  22902.000000  0    3448723.936  -1078661.643  -5871931.511
10 0 59220  23022.000000  0    2626610.261  -1083053.616  -6282256.450
10 0 59220  23142.000000  0    1759182.116  -1053886.897  -6582902.685
10 0 59220  23262.000000  0     862083.557   -991021.846  -6768690.153
10 0 59220  23382.000000  0     -48554.091   -895176.112  -6836422.026
10 0 59220  23502.000000  0    -956397.016   -767917.716  -6784933.261
10 0 59220  23622.000000  0   -1845194.841   -611640.015  -6615108.801
10 0 59220  23742.000000  0   -2699065.423   -429517.817  -6329869.413
10 0 59220  23862.000000  0   -3502771.843   -225446.281  -5934125.925
10 0 59220  23982.000000  0   -4241990.790     -3962.735  -5434705.093
10 0 59220  24102.000000  0   -4903569.236    229847.426  -4840242.407
10 0 59220  24222.000000  0   -5475762.421    470458.630  -4161044.722
10 0 59220  24342.000000  0   -5948451.737    712026.542  -3408922.757
10 0 59220  24462.000000  0   -6313335.261    948520.007  -2596993.635
10 0 59220  24582.000000  0   -6564086.296   1173860.493  -1739456.414
10 0 59220  24702.000000  0   -6696476.012   1382065.880   -851345.000
10 0 59220  24822.000000  0   -6708456.943   1567395.513     51739.825
10 0 59220  24942.000000  0   -6600200.499   1724491.138    953911.595
10 0 59220  25062.000000  0   -6374091.385   1848512.316   1839284.939
10 0 59220  25182.000000  0   -6034677.718   1935261.977   2692264.475
10 0 59220  25302.000000  0   -5588577.058   1981298.275   3497828.490
10 0 59220  25422.000000  0   -5044340.480   1984029.388   4241800.459
10 0 59220  25542.000000  0   -4412279.579   1941789.767   4911101.665
10 0 59220  25662.000000  0   -3704262.011   1853896.201   5493980.913
10 0 59220  25782.000000  0   -2933480.882   1720682.770   5980218.836
10 0 59220  25902.000000  0   -2114201.026   1543514.139   6361304.024
10 0 59220  26022.000000  0   -1261487.992   1324775.821   6630575.964
10 0 59220  26142.000000  0    -390927.322   1067842.600   6783334.062
10 0 59220  26262.000000  0     481660.454    777026.215   6816913.655
10 0 59220  26382.000000  0    1340506.218    457502.615   6730729.401
10 0 59220  26502.000000  0    2170175.817    115220.367   6526284.787
10 0 59220  26622.000000  0    2955846.432   -243209.099   6207148.560
10 0 59220  26742.000000  0    3683572.816   -610637.895   5778897.160
10 0 59220  26862.000000  0    4340537.991   -979522.172   5249022.418
10 0 59220  26982.000000  0    4915283.825  -1342075.295   4626806.722
10 0 59220  27102.000000  0    5397918.300  -1690429.766   3923166.109
10 0 59220  27222.000000  0    5780294.911  -2016805.188   3150462.275
10 0 59220  27342.000000  0    6056159.265  -2313679.421   2322286.017
10 0 59220  27462.000000  0    6221258.791  -2573957.665   1453216.143
10 0 59220  27582.000000  0    6273414.128  -2791135.469    558558.369
10 0 59220  27702.000000  0    6212548.503  -2959452.179   -345932.116
10 0 59220  27822.000000  0    6040674.824  -3074030.080  -1244336.767
10 0 59220  27942.000000  0    5761839.323  -3130995.618  -2120863.684
10 0 59220  28062.000000  0    5382024.351  -3127579.436  -2960131.943
10 0 59220  28182.000000  0    4909014.700  -3062193.367  -3747446.221
10 0 59220  28302.000000  0    4352230.043  -2934483.228  -4469055.285
10 0 59220  28422.000000  0    3722528.251  -2745356.139  -5112390.547
10 0 59220  28542.000000  0    3031984.217  -2496981.133  -5666278.362
10 0 59220  28662.000000  0    2293652.819  -2192765.177  -6121123.650
10 0 59220  28782.000000  0    1521320.190  -1837305.916  -6469066.485
10 0 59220  28902.000000  0     729245.042  -1436319.687  -6704108.074
10 0 59220  29022.000000  0     -68102.500   -996548.350  -6822203.179
10 0 59220  29142.000000  0    -856300.309   -525646.846  -6821321.593
10 0 59220  29262.000000  0   -1621228.838    -32052.802  -6701479.113
10 0 59220  29382.000000  0   -2349318.518    475161.213  -6464736.627
10 0 59220  29502.000000  0   -3027784.751    986449.738  -6115168.049
10 0 59220  29622.000000  0   -3644848.635   1491969.262  -5658798.405
10 0 59220  29742.000000  0   -4189942.179   1981763.290  -5103511.344
10 0 59220  29862.000000  0   -4653893.617   2445955.990  -4458924.564
10 0 59220  29982.000000  0   -5029088.064   2874950.269  -3736233.157
10 0 59220  30102.000000  0   -5309600.389   3259624.968  -2948024.497
10 0 59220  30222.000000  0   -5491298.789   3591529.300  -2108065.984
10 0 59220  30342.000000  0   -5571914.009   3863069.133  -1231067.091
10 0 59220  30462.000000  0   -5551072.889   4067679.382   -332420.149
10 0 59220  30582.000000  0   -5430294.095   4199978.886    572074.657
10 0 59220  30702.000000  0   -5212945.381   4255903.172   1466495.976
10 0 59220  30822.000000  0   -4904161.721   4232809.828   2335091.032
10 0 59220  30942.000000  0   -4510728.223   4129555.380   3162561.255
10 0 59220  31062.000000  0   -4040930.857   3946542.469   3934339.221
10 0 59220  31182.000000  0   -3504378.534   3685733.899   4636850.105
10 0 59220  31302.000000  0   -2911801.934   3350635.295   5257752.517
10 0 59220  31422.000000  0   -2274833.063   2946246.314   5786154.519
10 0 59220  31542.000000  0   -1605771.739   2478982.416   6212801.270
10 0 59220  31662.000000  0    -917343.376   1956568.426   6530231.359
10 0 59220  31782.000000  0    -222455.515   1387907.101   6732899.229
10 0 59220  31902.000000  0     466043.646    782925.405   6817267.018
10 0 59220  32022.000000  0    1135602.430    152400.576   6781861.938
10 0 59220  32142.000000  0    1774193.194   -492231.001   6627300.462
10 0 59220  32262.000000  0    2370527.642  -1139080.676   6356278.984
99
